OBJECT_NAME,OBJECT_ID,EPOCH,MEAN_MOTION,ECCENTRICITY,INCLINATION,RA_OF_ASC_NODE,ARG_OF_PERICENTER,MEAN_ANOMALY,EPHEMERIS_TYPE,CLASSIFICATION_TYPE,NORAD_CAT_ID,ELEMENT_SET_NO,REV_AT_EPOCH,BSTAR,MEAN_MOTION_DOT,MEAN_MOTION_DDOT
STARLINK-37687,2026-123R,2026-07-14T21:06:32.510880,15.80624287,.0000753,53.1580,102.4809,151.3820,208.7244,0,U,69368,999,642,-.92872E-3,-.17821E-2,0
STARLINK-37631,2026-123S,2026-07-14T05:56:56.219424,15.75293297,.00008944,53.1589,106.3961,132.9818,227.1278,0,U,69369,999,631,.78593562E-3,.121873E-2,0
STARLINK-37673,2026-123T,2026-07-14T11:03:42.350976,15.75327180,.00012596,53.1586,105.5988,83.5283,276.5880,0,U,69370,999,634,.10190044E-2,.159145E-2,0
STARLINK-37645,2026-123U,2026-07-14T06:10:00.543936,15.75324240,.00010971,53.1569,106.4519,129.9326,230.1790,0,U,69371,999,631,.12641691E-2,.198494E-2,0
STARLINK-37688,2026-123V,2026-07-14T05:49:56.095968,15.75293189,.00010113,53.1599,106.3582,101.2716,258.8418,0,U,69372,999,631,.80142964E-3,.124324E-2,0
STARLINK-37685,2026-123W,2026-07-14T05:56:39.615072,15.77596181,.0005214,53.1574,105.6503,30.7849,329.3477,0,U,69373,999,632,-.67064988E-3,-.113366E-2,0
STARLINK-37632,2026-123X,2026-07-14T05:53:51.372672,15.80939774,.00008704,53.1569,105.6365,77.9668,282.1452,0,U,69374,999,632,.68404292E-3,.13689E-2,0
STARLINK-37454,2026-123Y,2026-07-14T11:23:10.180896,15.75330775,.0000798,53.1590,104.9458,94.6685,265.4426,0,U,69375,999,635,.14417E-2,.227306E-2,0
STARLINK-37485,2026-123Z,2026-07-14T06:03:02.328192,15.75277733,.0000549,53.1570,106.4162,63.5402,296.5674,0,U,69376,999,631,.93822181E-3,.145932E-2,0
STARLINK-37439,2026-123AA,2026-07-14T06:09:24.189408,15.75318455,.00019674,53.1603,105.7067,135.5299,224.5880,0,U,69377,999,632,.12909163E-2,.202762E-2,0
STARLINK-37376,2026-123AB,2026-07-14T11:03:14.247648,15.75301507,.00012237,53.1589,105.5932,93.0963,267.0198,0,U,69378,999,634,.9502406E-3,.147999E-2,0
STARLINK-37383,2026-123AC,2026-07-14T20:50:58.133760,15.75362044,.000323,53.1590,103.1434,44.6760,315.4520,0,U,69379,999,641,.10522E-2,.164734E-2,0
STARLINK-37411,2026-123AD,2026-07-14T05:42:54.283392,15.80983476,.00024524,53.1581,105.5827,158.4040,201.7087,0,U,69380,999,632,.74937708E-3,.150588E-2,0
STARLINK-37427,2026-123AE,2026-07-14T20:47:22.077600,15.81047223,.0000311,53.1583,102.3874,359.6662,0.4361,0,U,69381,999,642,.11789E-2,.240514E-2,0
STARLINK-37537,2026-126A,2026-07-14T13:17:46.719744,15.75239942,.0001292,97.2839,56.8731,99.3296,260.8116,0,U,69420,999,705,.80589E-3,.12207E-2,0
STARLINK-37585,2026-126B,2026-07-14T14:34:01.068384,15.75213476,.000187,97.2838,56.9559,64.3210,295.8249,0,U,69421,999,706,.22296E-3,.33291E-3,0
STARLINK-37573,2026-126C,2026-07-14T14:53:49.993728,15.75201144,.0000288,97.2837,56.9357,120.9184,239.2110,0,U,69422,999,706,.63003E-3,.94938E-3,0
STARLINK-37820,2026-126D,2026-07-14T13:43:42.515904,15.75224227,.0001593,97.2842,57.0050,3.2830,356.8445,0,U,69423,999,706,.60139E-3,.90664E-3,0
STARLINK-37822,2026-126E,2026-07-14T14:07:04.994400,15.75196986,.0001576,97.2837,56.9822,34.7270,325.4098,0,U,69424,999,706,.46902E-3,.70429E-3,0
STARLINK-37836,2026-126F,2026-07-14T13:39:38.718432,15.75198621,.0001678,97.2816,57.0082,27.8473,332.2881,0,U,69425,999,706,.76222E-3,.11515E-2,0
STARLINK-37850,2026-126G,2026-07-14T13:46:45.315840,15.75251341,.0001,97.2828,57.0017,101.8328,258.3049,0,U,69426,999,711,.84702E-3,.128465E-2,0
STARLINK-37823,2026-126H,2026-07-14T20:22:08.880096,15.75226220,.000095,97.2825,57.2390,60.3084,299.8275,0,U,69427,999,710,.92238E-3,.139944E-2,0
STARLINK-37834,2026-126J,2026-07-14T20:00:01.999008,15.75212360,.0000945,97.2842,57.2023,98.5028,126.6019,0,U,69428,999,605,-.66302E-3,-.97988E-3,0
STARLINK-37857,2026-126K,2026-07-14T14:12:11.151072,15.75171253,.0000693,97.2826,56.9764,74.8418,285.2924,0,U,69429,999,706,.88623E-3,.134041E-2,0
STARLINK-37866,2026-126L,2026-07-14T13:36:35.845056,15.75206301,.0002068,97.2837,57.0106,358.0435,2.0822,0,U,69430,999,711,.63261E-3,.95361E-3,0
STARLINK-37555,2026-126M,2026-07-14T13:54:53.157024,15.75228797,.0001576,97.2839,56.9937,92.6005,267.5441,0,U,69431,999,711,.85836E-3,.130087E-2,0
STARLINK-37870,2026-126N,2026-07-14T13:49:48.575424,15.75180731,.0001438,97.2829,56.9987,30.0759,330.0589,0,U,69432,999,706,.70256E-3,.105927E-2,0
STARLINK-37872,2026-126P,2026-07-14T13:27:57.332736,15.75231726,.000132,97.2827,57.0194,79.8786,280.2628,0,U,69433,999,706,.92083E-3,.139739E-2,0
STARLINK-37815,2026-126Q,2026-07-14T14:39:36.507744,15.75198252,.0001246,97.2830,56.9490,70.6956,289.4444,0,U,69434,999,706,.4719E-3,.70868E-3,0
STARLINK-37801,2026-126R,2026-07-14T14:19:16.892256,15.75227636,.0001464,97.2832,56.9703,96.1499,263.9933,0,U,69435,999,711,.87705E-3,.13296E-2,0
