[ {"name": "STARLINK-37687", "line1": "1 69368U 26123R   26195.87954295 -.00178210  00000+0 -92872-3 0  9999", "line2": "2 69368  53.1580 102.4809 0000753 151.3820 208.7244 15.80624287  6427"}, {"name": "STARLINK-37631", "line1": "1 69369U 26123S   26195.24787291  .00121873  00000+0  78594-3 0  9997", "line2": "2 69369  53.1589 106.3961 0000894 132.9818 227.1278 15.75293297  6314"}, {"name": "STARLINK-37673", "line1": "1 69370U 26123T   26195.46090684  .00159145  00000+0  10190-2 0  9996", "line2": "2 69370  53.1586 105.5988 0001259  83.5283 276.5880 15.75327180  6345"}, {"name": "STARLINK-37645", "line1": "1 69371U 26123U   26195.25695074  .00198494  00000+0  12642-2 0  9992", "line2": "2 69371  53.1569 106.4519 0001097 129.9326 230.1790 15.75324240  6317"}, {"name": "STARLINK-37688", "line1": "1 69372U 26123V   26195.24301037  .00124324  00000+0  80143-3 0  9998", "line2": "2 69372  53.1599 106.3582 0001011 101.2716 258.8418 15.75293189  6313"}, {"name": "STARLINK-37685", "line1": "1 69373U 26123W   26195.24768073 -.00113366  00000+0 -67065-3 0  9990", "line2": "2 69373  53.1574 105.6503 0005214  30.7849 329.3477 15.77596181  6324"}, {"name": "STARLINK-37632", "line1": "1 69374U 26123X   26195.24573348  .00136890  00000+0  68404-3 0  9993", "line2": "2 69374  53.1569 105.6365 0000870  77.9668 282.1452 15.80939774  6322"}, {"name": "STARLINK-37454", "line1": "1 69375U 26123Y   26195.47442339  .00227306  00000+0  14417-2 0  9991", "line2": "2 69375  53.1590 104.9458 0000798  94.6685 265.4426 15.75330775  6354"}, {"name": "STARLINK-37485", "line1": "1 69376U 26123Z   26195.25211028  .00145932  00000+0  93822-3 0  9999", "line2": "2 69376  53.1570 106.4162 0000549  63.5402 296.5674 15.75277733  6318"}, {"name": "STARLINK-37439", "line1": "1 69377U 26123AA  26195.25652997  .00202762  00000+0  12909-2 0  9995", "line2": "2 69377  53.1603 105.7067 0001967 135.5299 224.5880 15.75318455  6329"}, {"name": "STARLINK-37376", "line1": "1 69378U 26123AB  26195.46058157  .00147999  00000+0  95024-3 0  9997", "line2": "2 69378  53.1589 105.5932 0001223  93.0963 267.0198 15.75301507  6349"}, {"name": "STARLINK-37383", "line1": "1 69379U 26123AC  26195.86872840  .00164734  00000+0  10522-2 0  9990", "line2": "2 69379  53.1590 103.1434 0003230  44.6760 315.4520 15.75362044  6418"}, {"name": "STARLINK-37411", "line1": "1 69380U 26123AD  26195.23812828  .00150588  00000+0  74938-3 0  9997", "line2": "2 69380  53.1581 105.5827 0002452 158.4040 201.7087 15.80983476  6321"}, {"name": "STARLINK-37427", "line1": "1 69381U 26123AE  26195.86622775  .00240514  00000+0  11789-2 0  9990", "line2": "2 69381  53.1583 102.3874 0000311 359.6662   0.4361 15.81047223  6420"}, {"name": "STARLINK-37537", "line1": "1 69420U 26126A   26195.55401296  .00122070  00000+0  80589-3 0  9997", "line2": "2 69420  97.2839  56.8731 0001292  99.3296 260.8116 15.75239942  7056"}, {"name": "STARLINK-37585", "line1": "1 69421U 26126B   26195.60695681  .00033291  00000+0  22296-3 0  9994", "line2": "2 69421  97.2838  56.9559 0001870  64.3210 295.8249 15.75213476  7065"}, {"name": "STARLINK-37573", "line1": "1 69422U 26126C   26195.62071752  .00094938  00000+0  63003-3 0  9990", "line2": "2 69422  97.2837  56.9357 0000288 120.9184 239.2110 15.75201144  7060"}, {"name": "STARLINK-37820", "line1": "1 69423U 26126D   26195.57201986  .00090664  00000+0  60139-3 0  9998", "line2": "2 69423  97.2842  57.0050 0001593   3.2830 356.8445 15.75224227  7064"}, {"name": "STARLINK-37822", "line1": "1 69424U 26126E   26195.58825225  .00070429  00000+0  46902-3 0  9997", "line2": "2 69424  97.2837  56.9822 0001576  34.7270 325.4098 15.75196986  7068"}, {"name": "STARLINK-37836", "line1": "1 69425U 26126F   26195.56919813  .00115150  00000+0  76222-3 0  9992", "line2": "2 69425  97.2816  57.0082 0001678  27.8473 332.2881 15.75198621  7061"}, {"name": "STARLINK-37850", "line1": "1 69426U 26126G   26195.57413560  .00128465  00000+0  84702-3 0  9997", "line2": "2 69426  97.2828  57.0017 0001000 101.8328 258.3049 15.75251341  7113"}, {"name": "STARLINK-37823", "line1": "1 69427U 26126H   26195.84871389  .00139944  00000+0  92238-3 0  9992", "line2": "2 69427  97.2825  57.2390 0000950  60.3084 299.8275 15.75226220  7106"}, {"name": "STARLINK-37834", "line1": "1 69428U 26126J   26195.83335647 -.00097988  00000+0 -66302-3 0  9990", "line2": "2 69428  97.2842  57.2023 0000945  98.5028 126.6019 15.75212360  6050"}, {"name": "STARLINK-37857", "line1": "1 69429U 26126K   26195.59179573  .00134041  00000+0  88623-3 0  9998", "line2": "2 69429  97.2826  56.9764 0000693  74.8418 285.2924 15.75171253  7065"}, {"name": "STARLINK-37866", "line1": "1 69430U 26126L   26195.56708154  .00095361  00000+0  63261-3 0  9992", "line2": "2 69430  97.2837  57.0106 0002068 358.0435   2.0822 15.75206301  7116"}, {"name": "STARLINK-37555", "line1": "1 69431U 26126M   26195.57978191  .00130087  00000+0  85836-3 0  9991", "line2": "2 69431  97.2839  56.9937 0001576  92.6005 267.5441 15.75228797  7114"}, {"name": "STARLINK-37870", "line1": "1 69432U 26126N   26195.57625666  .00105927  00000+0  70256-3 0  9993", "line2": "2 69432  97.2829  56.9987 0001438  30.0759 330.0589 15.75180731  7066"}, {"name": "STARLINK-37872", "line1": "1 69433U 26126P   26195.56108024  .00139739  00000+0  92083-3 0  9997", "line2": "2 69433  97.2827  57.0194 0001320  79.8786 280.2628 15.75231726  7069"}, {"name": "STARLINK-37815", "line1": "1 69434U 26126Q   26195.61083921  .00070868  00000+0  47190-3 0  9998", "line2": "2 69434  97.2830  56.9490 0001246  70.6956 289.4444 15.75198252  7069"}, {"name": "STARLINK-37801", "line1": "1 69435U 26126R   26195.59672329  .00132960  00000+0  87705-3 0  9990", "line2": "2 69435  97.2832  56.9703 0001464  96.1499 263.9933 15.75227636  7111"}]